[
  {
    "COMMENT": "GENERATED VIA SPACETRACK.ORG API",
    "ORIGINATOR": "18 SPCS",
    "NORAD_CAT_ID": "46469",
    "OBJECT_NAME": "HAIYANG 2C",
    "OBJECT_TYPE": "PAYLOAD",
    "CLASSIFICATION_TYPE": "U",
    "INTLDES": "20066A",
    "EPOCH": "2023-06-05 12:54:11",
    "EPOCH_MICROSECONDS": "782368",
    "MEAN_MOTION": "13.83375394",
    "ECCENTRICITY": "0.0009259",
    "INCLINATION": "65.9964",
    "RA_OF_ASC_NODE": "93.0865",
    "ARG_OF_PERICENTER": "301.3736",
    "MEAN_ANOMALY": "58.6426",
    "EPHEMERIS_TYPE": "0",
    "ELEMENT_SET_NO": "999",
    "REV_AT_EPOCH": "13628",
    "BSTAR": "0.00006268",
    "MEAN_MOTION_DOT": "-0.00000012",
    "MEAN_MOTION_DDOT": "0",
    "FILE": "3925691",
    "TLE_LINE0": "0 HAIYANG 2C",
    "TLE_LINE1": "1 46469U 20066A   23156.53763637 -.00000012  00000-0  62680-4 0  9990",
    "TLE_LINE2": "2 46469  65.9964  93.0865 0009259 301.3736  58.6426 13.83375394136286",
    "OBJECT_ID": "2020-066A",
    "OBJECT_NUMBER": "46469",
    "SEMIMAJOR_AXIS": "7330.076",
    "PERIOD": "104.093",
    "APOGEE": "958.728",
    "PERIGEE": "945.154",
    "DECAYED": "0"
  },
  {
    "COMMENT": "GENERATED VIA SPACETRACK.ORG API",
    "ORIGINATOR": "18 SPCS",
    "NORAD_CAT_ID": "46469",
    "OBJECT_NAME": "HAIYANG 2C",
    "OBJECT_TYPE": "PAYLOAD",
    "CLASSIFICATION_TYPE": "U",
    "INTLDES": "20066A",
    "EPOCH": "2023-06-05 21:34:43",
    "EPOCH_MICROSECONDS": "83264",
    "MEAN_MOTION": "13.83375458",
    "ECCENTRICITY": "0.0009269",
    "INCLINATION": "65.9964",
    "RA_OF_ASC_NODE": "92.1865",
    "ARG_OF_PERICENTER": "301.3245",
    "MEAN_ANOMALY": "58.6916",
    "EPHEMERIS_TYPE": "0",
    "ELEMENT_SET_NO": "999",
    "REV_AT_EPOCH": "13633",
    "BSTAR": "0.000062915",
    "MEAN_MOTION_DOT": "-0.00000012",
    "MEAN_MOTION_DDOT": "0",
    "FILE": "3925751",
    "TLE_LINE0": "0 HAIYANG 2C",
    "TLE_LINE1": "1 46469U 20066A   23156.89910976 -.00000012  00000-0  62915-4 0  9990",
    "TLE_LINE2": "2 46469  65.9964  92.1865 0009269 301.3245  58.6916 13.83375458136333",
    "OBJECT_ID": "2020-066A",
    "OBJECT_NUMBER": "46469",
    "SEMIMAJOR_AXIS": "7330.076",
    "PERIOD": "104.093",
    "APOGEE": "958.735",
    "PERIGEE": "945.147",
    "DECAYED": "0"
  },
  {
    "COMMENT": "GENERATED VIA SPACETRACK.ORG API",
    "ORIGINATOR": "18 SPCS",
    "NORAD_CAT_ID": "46469",
    "OBJECT_NAME": "HAIYANG 2C",
    "OBJECT_TYPE": "PAYLOAD",
    "CLASSIFICATION_TYPE": "U",
    "INTLDES": "20066A",
    "EPOCH": "2023-06-06 02:47:01",
    "EPOCH_MICROSECONDS": "867776",
    "MEAN_MOTION": "13.83375464",
    "ECCENTRICITY": "0.0009276",
    "INCLINATION": "65.9964",
    "RA_OF_ASC_NODE": "91.6466",
    "ARG_OF_PERICENTER": "301.3078",
    "MEAN_ANOMALY": "58.7081",
    "EPHEMERIS_TYPE": "0",
    "ELEMENT_SET_NO": "999",
    "REV_AT_EPOCH": "13665",
    "BSTAR": "0.000061071",
    "MEAN_MOTION_DOT": "-0.00000014",
    "MEAN_MOTION_DDOT": "0",
    "FILE": "3925834",
    "TLE_LINE0": "0 HAIYANG 2C",
    "TLE_LINE1": "1 46469U 20066A   23157.11599384 -.00000014  00000-0  61071-4 0  9996",
    "TLE_LINE2": "2 46469  65.9964  91.6466 0009276 301.3078  58.7081 13.83375464136652",
    "OBJECT_ID": "2020-066A",
    "OBJECT_NUMBER": "46469",
    "SEMIMAJOR_AXIS": "7330.076",
    "PERIOD": "104.093",
    "APOGEE": "958.740",
    "PERIGEE": "945.141",
    "DECAYED": "0"
  },
  {
    "COMMENT": "GENERATED VIA SPACETRACK.ORG API",
    "ORIGINATOR": "18 SPCS",
    "NORAD_CAT_ID": "46469",
    "OBJECT_NAME": "HAIYANG 2C",
    "OBJECT_TYPE": "PAYLOAD",
    "CLASSIFICATION_TYPE": "U",
    "INTLDES": "20066A",
    "EPOCH": "2023-06-06 09:43:26",
    "EPOCH_MICROSECONDS": "905728",
    "MEAN_MOTION": "13.8337557",
    "ECCENTRICITY": "0.0009288",
    "INCLINATION": "65.9965",
    "RA_OF_ASC_NODE": "90.9265",
    "ARG_OF_PERICENTER": "301.3196",
    "MEAN_ANOMALY": "58.6963",
    "EPHEMERIS_TYPE": "0",
    "ELEMENT_SET_NO": "999",
    "REV_AT_EPOCH": "13669",
    "BSTAR": "0.000073297",
    "MEAN_MOTION_DOT": "-0.00000001",
    "MEAN_MOTION_DDOT": "0",
    "FILE": "3926120",
    "TLE_LINE0": "0 HAIYANG 2C",
    "TLE_LINE1": "1 46469U 20066A   23157.40517252 -.00000001  00000-0  73297-4 0  9991",
    "TLE_LINE2": "2 46469  65.9965  90.9265 0009288 301.3196  58.6963 13.83375570136696",
    "OBJECT_ID": "2020-066A",
    "OBJECT_NUMBER": "46469",
    "SEMIMAJOR_AXIS": "7330.075",
    "PERIOD": "104.093",
    "APOGEE": "958.749",
    "PERIGEE": "945.132",
    "DECAYED": "0"
  },
  {
    "COMMENT": "GENERATED VIA SPACETRACK.ORG API",
    "ORIGINATOR": "18 SPCS",
    "NORAD_CAT_ID": "46469",
    "OBJECT_NAME": "HAIYANG 2C",
    "OBJECT_TYPE": "PAYLOAD",
    "CLASSIFICATION_TYPE": "U",
    "INTLDES": "20066A",
    "EPOCH": "2023-06-06 13:11:39",
    "EPOCH_MICROSECONDS": "425568",
    "MEAN_MOTION": "13.833756",
    "ECCENTRICITY": "0.0009292",
    "INCLINATION": "65.9965",
    "RA_OF_ASC_NODE": "90.5666",
    "ARG_OF_PERICENTER": "301.3086",
    "MEAN_ANOMALY": "58.7072",
    "EPHEMERIS_TYPE": "0",
    "ELEMENT_SET_NO": "999",
    "REV_AT_EPOCH": "13642",
    "BSTAR": "0.000075075",
    "MEAN_MOTION_DOT": "0.00000001",
    "MEAN_MOTION_DDOT": "0",
    "FILE": "3926325",
    "TLE_LINE0": "0 HAIYANG 2C",
    "TLE_LINE1": "1 46469U 20066A   23157.54976187  .00000001  00000-0  75075-4 0  9997",
    "TLE_LINE2": "2 46469  65.9965  90.5666 0009292 301.3086  58.7072 13.83375600136427",
    "OBJECT_ID": "2020-066A",
    "OBJECT_NUMBER": "46469",
    "SEMIMAJOR_AXIS": "7330.075",
    "PERIOD": "104.093",
    "APOGEE": "958.751",
    "PERIGEE": "945.129",
    "DECAYED": "0"
  },
  {
    "COMMENT": "GENERATED VIA SPACETRACK.ORG API",
    "ORIGINATOR": "18 SPCS",
    "NORAD_CAT_ID": "46469",
    "OBJECT_NAME": "HAIYANG 2C",
    "OBJECT_TYPE": "PAYLOAD",
    "CLASSIFICATION_TYPE": "U",
    "INTLDES": "20066A",
    "EPOCH": "2023-06-06 18:23:58",
    "EPOCH_MICROSECONDS": "204896",
    "MEAN_MOTION": "13.83375653",
    "ECCENTRICITY": "0.0009297",
    "INCLINATION": "65.9965",
    "RA_OF_ASC_NODE": "90.0266",
    "ARG_OF_PERICENTER": "301.2913",
    "MEAN_ANOMALY": "58.7245",
    "EPHEMERIS_TYPE": "0",
    "ELEMENT_SET_NO": "999",
    "REV_AT_EPOCH": "13674",
    "BSTAR": "0.000079016",
    "MEAN_MOTION_DOT": "0.00000006",
    "MEAN_MOTION_DDOT": "0",
    "FILE": "3926400",
    "TLE_LINE0": "0 HAIYANG 2C",
    "TLE_LINE1": "1 46469U 20066A   23157.76664589  .00000006  00000-0  79016-4 0  9995",
    "TLE_LINE2": "2 46469  65.9965  90.0266 0009297 301.2913  58.7245 13.83375653136746",
    "OBJECT_ID": "2020-066A",
    "OBJECT_NUMBER": "46469",
    "SEMIMAJOR_AXIS": "7330.075",
    "PERIOD": "104.093",
    "APOGEE": "958.755",
    "PERIGEE": "945.125",
    "DECAYED": "0"
  },
  {
    "COMMENT": "GENERATED VIA SPACETRACK.ORG API",
    "ORIGINATOR": "18 SPCS",
    "NORAD_CAT_ID": "46469",
    "OBJECT_NAME": "HAIYANG 2C",
    "OBJECT_TYPE": "PAYLOAD",
    "CLASSIFICATION_TYPE": "U",
    "INTLDES": "20066A",
    "EPOCH": "2023-06-06 20:08:04",
    "EPOCH_MICROSECONDS": "464384",
    "MEAN_MOTION": "13.83375674",
    "ECCENTRICITY": "0.0009298",
    "INCLINATION": "65.9965",
    "RA_OF_ASC_NODE": "89.8466",
    "ARG_OF_PERICENTER": "301.2851",
    "MEAN_ANOMALY": "58.7306",
    "EPHEMERIS_TYPE": "0",
    "ELEMENT_SET_NO": "999",
    "REV_AT_EPOCH": "13646",
    "BSTAR": "0.000079241",
    "MEAN_MOTION_DOT": "0.00000006",
    "MEAN_MOTION_DDOT": "0",
    "FILE": "3926571",
    "TLE_LINE0": "0 HAIYANG 2C",
    "TLE_LINE1": "1 46469U 20066A   23157.83894056  .00000006  00000-0  79241-4 0  9997",
    "TLE_LINE2": "2 46469  65.9965  89.8466 0009298 301.2851  58.7306 13.83375674136466",
    "OBJECT_ID": "2020-066A",
    "OBJECT_NUMBER": "46469",
    "SEMIMAJOR_AXIS": "7330.075",
    "PERIOD": "104.093",
    "APOGEE": "958.756",
    "PERIGEE": "945.124",
    "DECAYED": "0"
  },
  {
    "COMMENT": "GENERATED VIA SPACETRACK.ORG API",
    "ORIGINATOR": "18 SPCS",
    "NORAD_CAT_ID": "46469",
    "OBJECT_NAME": "HAIYANG 2C",
    "OBJECT_TYPE": "PAYLOAD",
    "CLASSIFICATION_TYPE": "U",
    "INTLDES": "20066A",
    "EPOCH": "2023-06-07 03:04:29",
    "EPOCH_MICROSECONDS": "500608",
    "MEAN_MOTION": "13.83375743",
    "ECCENTRICITY": "0.0009311",
    "INCLINATION": "65.9966",
    "RA_OF_ASC_NODE": "89.1267",
    "ARG_OF_PERICENTER": "301.2413",
    "MEAN_ANOMALY": "58.7742",
    "EPHEMERIS_TYPE": "0",
    "ELEMENT_SET_NO": "999",
    "REV_AT_EPOCH": "13679",
    "BSTAR": "0.00008895",
    "MEAN_MOTION_DOT": "0.00000017",
    "MEAN_MOTION_DDOT": "0",
    "FILE": "3926665",
    "TLE_LINE0": "0 HAIYANG 2C",
    "TLE_LINE1": "1 46469U 20066A   23158.12811922  .00000017  00000-0  88950-4 0  9990",
    "TLE_LINE2": "2 46469  65.9966  89.1267 0009311 301.2413  58.7742 13.83375743136796",
    "OBJECT_ID": "2020-066A",
    "OBJECT_NUMBER": "46469",
    "SEMIMAJOR_AXIS": "7330.075",
    "PERIOD": "104.093",
    "APOGEE": "958.765",
    "PERIGEE": "945.115",
    "DECAYED": "0"
  }
]